start=new Date('2022-11-10T00:00:00.000Z').valueOf();
sats=[{"ELEMENT_SET_NO":"999","CLASSIFICATION_TYPE":"U","GP_ID":"217275798","CENTER_NAME":"EARTH","RA_OF_ASC_NODE":"317.7098","PERIAPSIS":"537.815","FILE":"3650001","OBJECT_NAME":"STARLINK-3273","REV_AT_EPOCH":"5288","APOAPSIS":"541.771","ARG_OF_PERICENTER":"24.6567","MEAN_MOTION_DDOT":"0.0000000000000","TLE_LINE2":"2 50191  53.2171 317.7098 0002859  24.6567 335.4562 15.08824388 52884","REF_FRAME":"TEME","TLE_LINE1":"1 50191U 21125AM  22313.74384062 -.00006195  00000-0 -37155-3 0  9999","DECAY_DATE":null,"MEAN_MOTION_DOT":"-0.00006195","INCLINATION":"53.2171","OBJECT_ID":"2021-125AM","PERIOD":"95.439","SITE":"AFWTR","ECCENTRICITY":"0.00028590","TIME_SYSTEM":"UTC","NORAD_CAT_ID":"50191","MEAN_ANOMALY":"335.4562","EPHEMERIS_TYPE":"0","MEAN_ELEMENT_THEORY":"SGP4","EPOCH":"2022-11-09T17:51:07.829568","SEMIMAJOR_AXIS":"6917.928","RCS_SIZE":"LARGE","COUNTRY_CODE":"US","OBJECT_TYPE":"PAYLOAD","BSTAR":"-0.00037155000000","LAUNCH_DATE":"2021-12-18","MEAN_MOTION":"15.08824388"},{"MEAN_MOTION_DDOT":"0.0000000000000","ARG_OF_PERICENTER":"27.3432","FILE":"3649526","OBJECT_NAME":"STARLINK-3259","PERIAPSIS":"537.934","APOAPSIS":"541.568","REV_AT_EPOCH":"5311","GP_ID":"217239197","RA_OF_ASC_NODE":"299.2638","CENTER_NAME":"EARTH","ELEMENT_SET_NO":"999","CLASSIFICATION_TYPE":"U","LAUNCH_DATE":"2021-12-18","BSTAR":"-0.00012126000000","MEAN_MOTION":"15.08838190","RCS_SIZE":"LARGE","SEMIMAJOR_AXIS":"6917.886","EPOCH":"2022-11-09T09:35:39.015168","OBJECT_TYPE":"PAYLOAD","COUNTRY_CODE":"US","TIME_SYSTEM":"UTC","MEAN_ELEMENT_THEORY":"SGP4","EPHEMERIS_TYPE":"0","MEAN_ANOMALY":"332.7698","NORAD_CAT_ID":"50192","OBJECT_ID":"2021-125AN","TLE_LINE1":"1 50192U 21125AN  22313.39975712 -.00002218  00000-0 -12126-3 0  9992","MEAN_MOTION_DOT":"-0.00002218","DECAY_DATE":null,"INCLINATION":"53.2169","REF_FRAME":"TEME","TLE_LINE2":"2 50192  53.2169 299.2638 0002626  27.3432 332.7698 15.08838190 53112","ECCENTRICITY":"0.00026260","PERIOD":"95.438","SITE":"AFWTR"},{"TIME_SYSTEM":"UTC","NORAD_CAT_ID":"50193","MEAN_ANOMALY":"334.5827","EPHEMERIS_TYPE":"0","MEAN_ELEMENT_THEORY":"SGP4","TLE_LINE2":"2 50193  53.2177 299.5154 0003315  25.5329 334.5827 15.08856642 52620","TLE_LINE1":"1 50193U 21125AP  22313.34454309  .00001181  00000-0  92267-4 0  9993","MEAN_MOTION_DOT":"0.00001181","DECAY_DATE":null,"REF_FRAME":"TEME","INCLINATION":"53.2177","OBJECT_ID":"2021-125AP","SITE":"AFWTR","PERIOD":"95.437","ECCENTRICITY":"0.00033150","LAUNCH_DATE":"2021-12-18","BSTAR":"0.00009226700000","MEAN_MOTION":"15.08856642","EPOCH":"2022-11-09T08:16:08.522976","SEMIMAJOR_AXIS":"6917.830","RCS_SIZE":"LARGE","COUNTRY_CODE":"US","OBJECT_TYPE":"PAYLOAD","GP_ID":"217251644","RA_OF_ASC_NODE":"299.5154","CENTER_NAME":"EARTH","ELEMENT_SET_NO":"999","CLASSIFICATION_TYPE":"U","ARG_OF_PERICENTER":"25.5329","MEAN_MOTION_DDOT":"0.0000000000000","OBJECT_NAME":"STARLINK-3261","FILE":"3649976","PERIAPSIS":"537.401","REV_AT_EPOCH":"5262","APOAPSIS":"541.988"},{"MEAN_MOTION_DDOT":"0.0000000000000","ARG_OF_PERICENTER":"32.8195","APOAPSIS":"541.550","REV_AT_EPOCH":"5320","OBJECT_NAME":"STARLINK-3269","FILE":"3650001","PERIAPSIS":"538.026","CENTER_NAME":"EARTH","RA_OF_ASC_NODE":"298.0920","GP_ID":"217276047","CLASSIFICATION_TYPE":"U","ELEMENT_SET_NO":"999","MEAN_MOTION":"15.08826082","LAUNCH_DATE":"2021-12-18","BSTAR":"-0.00000460470000","OBJECT_TYPE":"PAYLOAD","COUNTRY_CODE":"US","SEMIMAJOR_AXIS":"6917.923","RCS_SIZE":"LARGE","EPOCH":"2022-11-09T15:51:54.426240","MEAN_ELEMENT_THEORY":"SGP4","NORAD_CAT_ID":"50194","MEAN_ANOMALY":"327.2955","EPHEMERIS_TYPE":"0","TIME_SYSTEM":"UTC","ECCENTRICITY":"0.00025470","PERIOD":"95.438","SITE":"AFWTR","OBJECT_ID":"2021-125AQ","TLE_LINE2":"2 50194  53.2194 298.0920 0002547  32.8195 327.2955 15.08826082 53204","DECAY_DATE":null,"TLE_LINE1":"1 50194U 21125AQ  22313.66104660 -.00000362  00000-0 -46047-5 0  9999","MEAN_MOTION_DOT":"-0.00000362","INCLINATION":"53.2194","REF_FRAME":"TEME"},{"MEAN_MOTION_DDOT":"0.0000000000000","ARG_OF_PERICENTER":"30.5597","APOAPSIS":"541.422","REV_AT_EPOCH":"5318","OBJECT_NAME":"STARLINK-3266","FILE":"3650001","PERIAPSIS":"538.169","CENTER_NAME":"EARTH","RA_OF_ASC_NODE":"297.1521","GP_ID":"217276299","CLASSIFICATION_TYPE":"U","ELEMENT_SET_NO":"999","BSTAR":"-0.00074893000000","LAUNCH_DATE":"2021-12-18","MEAN_MOTION":"15.08823709","OBJECT_TYPE":"PAYLOAD","COUNTRY_CODE":"US","SEMIMAJOR_AXIS":"6917.930","RCS_SIZE":"LARGE","EPOCH":"2022-11-09T20:53:56.319072","MEAN_ELEMENT_THEORY":"SGP4","NORAD_CAT_ID":"50195","MEAN_ANOMALY":"329.5532","EPHEMERIS_TYPE":"0","TIME_SYSTEM":"UTC","ECCENTRICITY":"0.00023510","PERIOD":"95.439","SITE":"AFWTR","OBJECT_ID":"2021-125AR","TLE_LINE2":"2 50195  53.2160 297.1521 0002351  30.5597 329.5532 15.08823709 53185","TLE_LINE1":"1 50195U 21125AR  22313.87079073 -.00012183  00000-0 -74893-3 0  9994","MEAN_MOTION_DOT":"-0.00012183","DECAY_DATE":null,"INCLINATION":"53.2160","REF_FRAME":"TEME"},{"TIME_SYSTEM":"UTC","MEAN_ELEMENT_THEORY":"SGP4","EPHEMERIS_TYPE":"0","MEAN_ANOMALY":"337.6661","NORAD_CAT_ID":"50196","OBJECT_ID":"2021-125AS","TLE_LINE1":"1 50196U 21125AS  22313.91863884 -.00015571  00000-0 -96294-3 0  9994","DECAY_DATE":null,"INCLINATION":"53.2145","MEAN_MOTION_DOT":"-0.00015571","REF_FRAME":"TEME","TLE_LINE2":"2 50196  53.2145 296.9398 0002708  22.4449 337.6661 15.08813956 53197","ECCENTRICITY":"0.00027080","SITE":"AFWTR","PERIOD":"95.439","BSTAR":"-0.00096294000000","LAUNCH_DATE":"2021-12-18","MEAN_MOTION":"15.08813956","RCS_SIZE":"LARGE","SEMIMAJOR_AXIS":"6917.960","EPOCH":"2022-11-09T22:02:50.395776","OBJECT_TYPE":"PAYLOAD","COUNTRY_CODE":"US","GP_ID":"217275047","CENTER_NAME":"EARTH","RA_OF_ASC_NODE":"296.9398","ELEMENT_SET_NO":"999","CLASSIFICATION_TYPE":"U","MEAN_MOTION_DDOT":"0.0000000000000","ARG_OF_PERICENTER":"22.4449","OBJECT_NAME":"STARLINK-3263","FILE":"3650001","PERIAPSIS":"537.952","APOAPSIS":"541.698","REV_AT_EPOCH":"5319"},{"LAUNCH_DATE":"2021-12-18","MEAN_MOTION":"15.08807654","BSTAR":"-0.00128950000000","EPOCH":"2022-11-09T20:32:44.473920","SEMIMAJOR_AXIS":"6917.979","RCS_SIZE":"LARGE","COUNTRY_CODE":"US","OBJECT_TYPE":"PAYLOAD","TIME_SYSTEM":"UTC","NORAD_CAT_ID":"50197","MEAN_ANOMALY":"330.7516","EPHEMERIS_TYPE":"0","MEAN_ELEMENT_THEORY":"SGP4","TLE_LINE2":"2 50197  53.2165 297.2210 0002243  29.3602 330.7516 15.08807654 53234","TLE_LINE1":"1 50197U 21125AT  22313.85607030 -.00020735  00000-0 -12895-2 0  9999","DECAY_DATE":null,"MEAN_MOTION_DOT":"-0.00020735","INCLINATION":"53.2165","REF_FRAME":"TEME","OBJECT_ID":"2021-125AT","PERIOD":"95.440","SITE":"AFWTR","ECCENTRICITY":"0.00022430","ARG_OF_PERICENTER":"29.3602","MEAN_MOTION_DDOT":"0.0000000000000","OBJECT_NAME":"STARLINK-3267","FILE":"3650001","PERIAPSIS":"538.293","REV_AT_EPOCH":"5323","APOAPSIS":"541.396","GP_ID":"217275297","RA_OF_ASC_NODE":"297.2210","CENTER_NAME":"EARTH","ELEMENT_SET_NO":"999","CLASSIFICATION_TYPE":"U"},{"REV_AT_EPOCH":"5311","APOAPSIS":"541.052","OBJECT_NAME":"STARLINK-3264","FILE":"3649526","PERIAPSIS":"538.319","ARG_OF_PERICENTER":"38.3026","MEAN_MOTION_DDOT":"0.0000000000000","CLASSIFICATION_TYPE":"U","ELEMENT_SET_NO":"999","RA_OF_ASC_NODE":"299.3657","CENTER_NAME":"EARTH","GP_ID":"217238208","COUNTRY_CODE":"US","OBJECT_TYPE":"PAYLOAD","EPOCH":"2022-11-09T09:03:49.759200","RCS_SIZE":"LARGE","SEMIMAJOR_AXIS":"6917.821","MEAN_MOTION":"15.08859536","LAUNCH_DATE":"2021-12-18","BSTAR":"0.00016996000000","SITE":"AFWTR","PERIOD":"95.436","ECCENTRICITY":"0.00019750","DECAY_DATE":null,"TLE_LINE1":"1 50198U 21125AU  22313.37765925  .00002419  00000-0  16996-3 0  9999","REF_FRAME":"TEME","MEAN_MOTION_DOT":"0.00002419","INCLINATION":"53.2165","TLE_LINE2":"2 50198  53.2165 299.3657 0001975  38.3026 321.8106 15.08859536 53113","OBJECT_ID":"2021-125AU","EPHEMERIS_TYPE":"0","NORAD_CAT_ID":"50198","MEAN_ANOMALY":"321.8106","MEAN_ELEMENT_THEORY":"SGP4","TIME_SYSTEM":"UTC"},{"CLASSIFICATION_TYPE":"U","ELEMENT_SET_NO":"999","RA_OF_ASC_NODE":"297.3553","CENTER_NAME":"EARTH","GP_ID":"217275799","APOAPSIS":"541.581","REV_AT_EPOCH":"5317","FILE":"3650001","OBJECT_NAME":"STARLINK-3270","PERIAPSIS":"537.849","MEAN_MOTION_DDOT":"0.0000000000000","ARG_OF_PERICENTER":"28.6333","ECCENTRICITY":"0.00026980","PERIOD":"95.437","SITE":"AFWTR","OBJECT_ID":"2021-125AV","MEAN_MOTION_DOT":"-0.00001584","TLE_LINE1":"1 50199U 21125AV  22313.82294158 -.00001584  00000-0 -81356-4 0  9992","DECAY_DATE":null,"REF_FRAME":"TEME","INCLINATION":"53.2168","TLE_LINE2":"2 50199  53.2168 297.3553 0002698  28.6333 331.4807 15.08849947 53172","MEAN_ELEMENT_THEORY":"SGP4","EPHEMERIS_TYPE":"0","MEAN_ANOMALY":"331.4807","NORAD_CAT_ID":"50199","TIME_SYSTEM":"UTC","OBJECT_TYPE":"PAYLOAD","COUNTRY_CODE":"US","RCS_SIZE":"LARGE","SEMIMAJOR_AXIS":"6917.850","EPOCH":"2022-11-09T19:45:02.152512","LAUNCH_DATE":"2021-12-18","MEAN_MOTION":"15.08849947","BSTAR":"-0.00008135600000"},{"CLASSIFICATION_TYPE":"U","ELEMENT_SET_NO":"999","CENTER_NAME":"EARTH","RA_OF_ASC_NODE":"297.5441","GP_ID":"217274547","REV_AT_EPOCH":"5318","APOAPSIS":"541.158","OBJECT_NAME":"STARLINK-3235","FILE":"3650001","PERIAPSIS":"538.419","ARG_OF_PERICENTER":"36.2620","MEAN_MOTION_DDOT":"0.0000000000000","SITE":"AFWTR","PERIOD":"95.438","ECCENTRICITY":"0.00019790","DECAY_DATE":null,"TLE_LINE1":"1 50200U 21125AW  22313.78247482 -.00005212  00000-0 -30970-3 0  9995","INCLINATION":"53.2165","MEAN_MOTION_DOT":"-0.00005212","REF_FRAME":"TEME","TLE_LINE2":"2 50200  53.2165 297.5441 0001979  36.2620 323.8506 15.08825895 53183","OBJECT_ID":"2021-125AW","EPHEMERIS_TYPE":"0","NORAD_CAT_ID":"50200","MEAN_ANOMALY":"323.8506","MEAN_ELEMENT_THEORY":"SGP4","TIME_SYSTEM":"UTC","COUNTRY_CODE":"US","OBJECT_TYPE":"PAYLOAD","EPOCH":"2022-11-09T18:46:45.824448","RCS_SIZE":"LARGE","SEMIMAJOR_AXIS":"6917.924","LAUNCH_DATE":"2021-12-18","MEAN_MOTION":"15.08825895","BSTAR":"-0.00030970000000"}];
